[
    {
        "OBJECT_NAME": "INMARSAT 4-F2 (SOUTHPAN/PRN 122)",
        "OBJECT_ID": "2005-044A",
        "EPOCH": "2026-07-09T19:27:56.021184",
        "MEAN_MOTION": 1.00271241,
        "ECCENTRICITY": 0.00028981,
        "INCLINATION": 5.1235,
        "RA_OF_ASC_NODE": 43.6494,
        "ARG_OF_PERICENTER": 59.0214,
        "MEAN_ANOMALY": 260.545,
        "EPHEMERIS_TYPE": 0,
        "CLASSIFICATION_TYPE": "U",
        "NORAD_CAT_ID": 28899,
        "ELEMENT_SET_NO": 999,
        "REV_AT_EPOCH": 7574,
        "BSTAR": 0,
        "MEAN_MOTION_DOT": -2.53e-06,
        "MEAN_MOTION_DDOT": 0
    },
    {
        "OBJECT_NAME": "GSAT-8 (GAGAN/PRN 127)",
        "OBJECT_ID": "2011-022A",
        "EPOCH": "2026-07-10T05:18:45.811584",
        "MEAN_MOTION": 1.00271522,
        "ECCENTRICITY": 0.00026475,
        "INCLINATION": 2.1876,
        "RA_OF_ASC_NODE": 81.5454,
        "ARG_OF_PERICENTER": 165.7862,
        "MEAN_ANOMALY": 175.5805,
        "EPHEMERIS_TYPE": 0,
        "CLASSIFICATION_TYPE": "U",
        "NORAD_CAT_ID": 37605,
        "ELEMENT_SET_NO": 999,
        "REV_AT_EPOCH": 5344,
        "BSTAR": 0,
        "MEAN_MOTION_DOT": 9.3e-07,
        "MEAN_MOTION_DDOT": 0
    },
    {
        "OBJECT_NAME": "LUCH 5A (SDCM/PRN 140)",
        "OBJECT_ID": "2011-074B",
        "EPOCH": "2026-07-09T21:17:24.132768",
        "MEAN_MOTION": 1.00272587,
        "ECCENTRICITY": 0.00025667,
        "INCLINATION": 8.8083,
        "RA_OF_ASC_NODE": 73.4735,
        "ARG_OF_PERICENTER": 57.5,
        "MEAN_ANOMALY": 283.1588,
        "EPHEMERIS_TYPE": 0,
        "CLASSIFICATION_TYPE": "U",
        "NORAD_CAT_ID": 37951,
        "ELEMENT_SET_NO": 999,
        "REV_AT_EPOCH": 5327,
        "BSTAR": 0,
        "MEAN_MOTION_DOT": -4.6e-07,
        "MEAN_MOTION_DDOT": 0
    },
    {
        "OBJECT_NAME": "SES-5 (EGNOS/PRN 136)",
        "OBJECT_ID": "2012-036A",
        "EPOCH": "2026-07-09T20:31:13.628640",
        "MEAN_MOTION": 1.00272424,
        "ECCENTRICITY": 0.00020582,
        "INCLINATION": 0.045,
        "RA_OF_ASC_NODE": 319.9907,
        "ARG_OF_PERICENTER": 149.7218,
        "MEAN_ANOMALY": 130.8584,
        "EPHEMERIS_TYPE": 0,
        "CLASSIFICATION_TYPE": "U",
        "NORAD_CAT_ID": 38652,
        "ELEMENT_SET_NO": 999,
        "REV_AT_EPOCH": 4468,
        "BSTAR": 0,
        "MEAN_MOTION_DOT": 4.6e-07,
        "MEAN_MOTION_DDOT": 0
    },
    {
        "OBJECT_NAME": "GSAT-10 (GAGAN/PRN 128)",
        "OBJECT_ID": "2012-051B",
        "EPOCH": "2026-07-10T03:44:05.074656",
        "MEAN_MOTION": 1.00272033,
        "ECCENTRICITY": 0.00074714,
        "INCLINATION": 0.1055,
        "RA_OF_ASC_NODE": 265.9328,
        "ARG_OF_PERICENTER": 186.8596,
        "MEAN_ANOMALY": 334.2821,
        "EPHEMERIS_TYPE": 0,
        "CLASSIFICATION_TYPE": "U",
        "NORAD_CAT_ID": 38779,
        "ELEMENT_SET_NO": 999,
        "REV_AT_EPOCH": 5032,
        "BSTAR": 0,
        "MEAN_MOTION_DOT": -1.53e-06,
        "MEAN_MOTION_DDOT": 0
    },
    {
        "OBJECT_NAME": "LUCH 5B (SDCM/PRN 125)",
        "OBJECT_ID": "2012-061A",
        "EPOCH": "2026-07-10T00:16:23.949984",
        "MEAN_MOTION": 1.00271225,
        "ECCENTRICITY": 0.00037317,
        "INCLINATION": 10.5296,
        "RA_OF_ASC_NODE": 49.6499,
        "ARG_OF_PERICENTER": 144.0727,
        "MEAN_ANOMALY": 82.0682,
        "EPHEMERIS_TYPE": 0,
        "CLASSIFICATION_TYPE": "U",
        "NORAD_CAT_ID": 38977,
        "ELEMENT_SET_NO": 999,
        "REV_AT_EPOCH": 4983,
        "BSTAR": 0,
        "MEAN_MOTION_DOT": -1.35e-06,
        "MEAN_MOTION_DDOT": 0
    },
    {
        "OBJECT_NAME": "ASTRA 5B (EGNOS/PRN 123)",
        "OBJECT_ID": "2014-011B",
        "EPOCH": "2026-07-10T06:52:16.167072",
        "MEAN_MOTION": 1.00271751,
        "ECCENTRICITY": 0.00017909,
        "INCLINATION": 0.0627,
        "RA_OF_ASC_NODE": 313.7291,
        "ARG_OF_PERICENTER": 162.797,
        "MEAN_ANOMALY": 298.2453,
        "EPHEMERIS_TYPE": 0,
        "CLASSIFICATION_TYPE": "U",
        "NORAD_CAT_ID": 39617,
        "ELEMENT_SET_NO": 999,
        "REV_AT_EPOCH": 4489,
        "BSTAR": 0,
        "MEAN_MOTION_DOT": 1.48e-06,
        "MEAN_MOTION_DDOT": 0
    },
    {
        "OBJECT_NAME": "LUCH 5V (SDCM/PRN 141)",
        "OBJECT_ID": "2014-023A",
        "EPOCH": "2026-07-09T15:48:45.980064",
        "MEAN_MOTION": 1.00266729,
        "ECCENTRICITY": 0.00026779,
        "INCLINATION": 5.1849,
        "RA_OF_ASC_NODE": 69.5197,
        "ARG_OF_PERICENTER": 71.0216,
        "MEAN_ANOMALY": 118.8925,
        "EPHEMERIS_TYPE": 0,
        "CLASSIFICATION_TYPE": "U",
        "NORAD_CAT_ID": 39727,
        "ELEMENT_SET_NO": 999,
        "REV_AT_EPOCH": 4458,
        "BSTAR": 0,
        "MEAN_MOTION_DOT": -2.59e-06,
        "MEAN_MOTION_DDOT": 0
    },
    {
        "OBJECT_NAME": "GSAT-15 (GAGAN/PRN 139)",
        "OBJECT_ID": "2015-065A",
        "EPOCH": "2026-07-10T07:12:14.253408",
        "MEAN_MOTION": 1.00271341,
        "ECCENTRICITY": 0.00036703,
        "INCLINATION": 0.0133,
        "RA_OF_ASC_NODE": 334.0803,
        "ARG_OF_PERICENTER": 116.2719,
        "MEAN_ANOMALY": 39.4391,
        "EPHEMERIS_TYPE": 0,
        "CLASSIFICATION_TYPE": "U",
        "NORAD_CAT_ID": 41028,
        "ELEMENT_SET_NO": 999,
        "REV_AT_EPOCH": 3903,
        "BSTAR": 0,
        "MEAN_MOTION_DOT": -2.47e-06,
        "MEAN_MOTION_DDOT": 0
    },
    {
        "OBJECT_NAME": "EUTELSAT 117 WEST B (WAAS/PRN 131)",
        "OBJECT_ID": "2016-038B",
        "EPOCH": "2026-07-10T06:12:19.995264",
        "MEAN_MOTION": 1.00273613,
        "ECCENTRICITY": 3.53e-05,
        "INCLINATION": 0.0062,
        "RA_OF_ASC_NODE": 158.6562,
        "ARG_OF_PERICENTER": 302.611,
        "MEAN_ANOMALY": 163.0106,
        "EPHEMERIS_TYPE": 0,
        "CLASSIFICATION_TYPE": "U",
        "NORAD_CAT_ID": 41589,
        "ELEMENT_SET_NO": 999,
        "REV_AT_EPOCH": 3689,
        "BSTAR": 0,
        "MEAN_MOTION_DOT": -1e-08,
        "MEAN_MOTION_DDOT": 0
    },
    {
        "OBJECT_NAME": "SES-15 (WAAS/PRN 133)",
        "OBJECT_ID": "2017-026A",
        "EPOCH": "2026-07-10T08:07:44.683968",
        "MEAN_MOTION": 1.00266831,
        "ECCENTRICITY": 3.137e-05,
        "INCLINATION": 0.0258,
        "RA_OF_ASC_NODE": 325.5146,
        "ARG_OF_PERICENTER": 127.4028,
        "MEAN_ANOMALY": 188.1175,
        "EPHEMERIS_TYPE": 0,
        "CLASSIFICATION_TYPE": "U",
        "NORAD_CAT_ID": 42709,
        "ELEMENT_SET_NO": 999,
        "REV_AT_EPOCH": 766,
        "BSTAR": 0,
        "MEAN_MOTION_DOT": 7.1e-07,
        "MEAN_MOTION_DDOT": 0
    },
    {
        "OBJECT_NAME": "QZS-2 (QZSS/PRN 194)",
        "OBJECT_ID": "2017-028A",
        "EPOCH": "2026-07-09T11:02:38.826240",
        "MEAN_MOTION": 1.00278207,
        "ECCENTRICITY": 0.07580661,
        "INCLINATION": 39.3944,
        "RA_OF_ASC_NODE": 242.8253,
        "ARG_OF_PERICENTER": 269.5337,
        "MEAN_ANOMALY": 83.0316,
        "EPHEMERIS_TYPE": 0,
        "CLASSIFICATION_TYPE": "U",
        "NORAD_CAT_ID": 42738,
        "ELEMENT_SET_NO": 999,
        "REV_AT_EPOCH": 785,
        "BSTAR": 0,
        "MEAN_MOTION_DOT": -9.2e-07,
        "MEAN_MOTION_DDOT": 0
    },
    {
        "OBJECT_NAME": "QZS-3 (QZSS/PRN 199)",
        "OBJECT_ID": "2017-048A",
        "EPOCH": "2026-07-10T07:21:58.319136",
        "MEAN_MOTION": 1.00274625,
        "ECCENTRICITY": 0.00025269,
        "INCLINATION": 0.0737,
        "RA_OF_ASC_NODE": 218.9036,
        "ARG_OF_PERICENTER": 264.9421,
        "MEAN_ANOMALY": 41.8841,
        "EPHEMERIS_TYPE": 0,
        "CLASSIFICATION_TYPE": "U",
        "NORAD_CAT_ID": 42917,
        "ELEMENT_SET_NO": 999,
        "REV_AT_EPOCH": 3249,
        "BSTAR": 0,
        "MEAN_MOTION_DOT": -3.37e-06,
        "MEAN_MOTION_DDOT": 0
    }
]